*******************************************************************************
 Revised: June 21, 2016                 Mars                            499 / 4
 
 PHYSICAL DATA (updated 2019-Oct-29):
  Vol. mean radius (km) = 3389.92+-0.04   Density (g/cm^3)      =  3.933(5+-4)
  Mass x10^23 (kg)      =    6.4171       Flattening, f         =  1/169.779
  Volume (x10^10 km^3)  =   16.318        Equatorial radius (km)=  3396.19
  Sidereal rot. period  =   24.622962 hr  Sid. rot. rate, rad/s =  0.0000708822 
  Mean solar day (sol)  =   88775.24415 s Polar gravity m/s^2   =  3.758
  Core radius (km)      = ~1700           Equ. gravity  m/s^2   =  3.71
  Geometric Albedo      =    0.150                                              

  GM (km^3/s^2)         = 42828.375214    Mass ratio (Sun/Mars) = 3098703.59
  GM 1-sigma (km^3/s^2) = +- 0.00028      Mass of atmosphere, kg= ~ 2.5 x 10^16
  Mean temperature (K)  =  210            Atmos. pressure (bar) =    0.0056 
  Obliquity to orbit    =   25.19 deg     Max. angular diam.    =  17.9"
  Mean sidereal orb per =    1.88081578 y Visual mag. V(1,0)    =  -1.52
  Mean sidereal orb per =  686.98 d       Orbital speed,  km/s  =  24.13
  Hill's sphere rad. Rp =  319.8          Escape speed, km/s    =   5.027
                                 Perihelion  Aphelion    Mean
  Solar Constant (W/m^2)         717         493         589
  Maximum Planetary IR (W/m^2)   470         315         390
  Minimum Planetary IR (W/m^2)    30          30          30
*******************************************************************************


*******************************************************************************
Ephemeris / WWW_USER Sat Jun 10 10:47:29 2023 Pasadena, USA      / Horizons
*******************************************************************************
Target body name: Mars (499)                      {source: mar097}
Center body name: Earth (399)                     {source: DE441}
Center-site name: Greenwich
*******************************************************************************
Start time      : A.D. 1930-Jan-01 00:00:00.0000 TDB
Stop  time      : A.D. 2030-Jan-01 00:00:00.0000 TDB
Step-size       : 10080 minutes
*******************************************************************************
Center geodetic : 0.0, 51.4773207, .0670693       {E-lon(deg),Lat(deg),Alt(km)}
Center cylindric: 0.0, 3980.6647, 4966.84378      {E-lon(deg),Dxy(km),Dz(km)}
Center pole/equ : ITRF93                          {East-longitude positive}
Center radii    : 6378.137, 6378.137, 6356.752 km {Equator_a, b, pole_c}
Output units    : KM-S
Calendar mode   : Mixed Julian/Gregorian
Output type     : GEOMETRIC cartesian states
Output format   : 1 (position only)
EOP file        : eop.230609.p230901
EOP coverage    : DATA-BASED 1962-JAN-20 TO 2023-JUN-09. PREDICTS-> 2023-AUG-31
Reference frame : Ecliptic of J2000.0
*******************************************************************************
JDTDB
   X     Y     Z
*******************************************************************************
$$SOE
2451324.500000000 = A.D. 1999-May-26 00:00:00.0000 TDB 
 X =-8.528729419369113E+07 Y =-3.982607001909417E+07 Z = 7.927172163939103E+03
2451331.500000000 = A.D. 1999-Jun-02 00:00:00.0000 TDB 
 X =-8.967387867667440E+07 Y =-4.085277296148019E+07 Z =-4.526110097458363E+05
2451338.500000000 = A.D. 1999-Jun-09 00:00:00.0000 TDB 
 X =-9.419845913442524E+07 Y =-4.313584233043895E+07 Z =-9.118002182202488E+05
2451345.500000000 = A.D. 1999-Jun-16 00:00:00.0000 TDB 
 X =-9.867126633620200E+07 Y =-4.670731264093637E+07 Z =-1.366549478228614E+06
2451352.500000000 = A.D. 1999-Jun-23 00:00:00.0000 TDB 
 X =-1.028800967658757E+08 Y =-5.156888495730677E+07 Z =-1.815369677936003E+06
2451359.500000000 = A.D. 1999-Jun-30 00:00:00.0000 TDB 
 X =-1.066234889676238E+08 Y =-5.767660208239728E+07 Z =-2.257426052096263E+06
2451366.500000000 = A.D. 1999-Jul-07 00:00:00.0000 TDB 
 X =-1.097213913932259E+08 Y =-6.496973247522679E+07 Z =-2.690223451600350E+06
2451373.500000000 = A.D. 1999-Jul-14 00:00:00.0000 TDB 
 X =-1.119950464649784E+08 Y =-7.338044202889480E+07 Z =-3.110545175685022E+06
2451380.500000000 = A.D. 1999-Jul-21 00:00:00.0000 TDB 
 X =-1.132559250324098E+08 Y =-8.280937538453692E+07 Z =-3.516997777798701E+06
2451387.500000000 = A.D. 1999-Jul-28 00:00:00.0000 TDB 
 X =-1.133400335979189E+08 Y =-9.311665220648569E+07 Z =-3.908558685283247E+06
2451394.500000000 = A.D. 1999-Aug-04 00:00:00.0000 TDB 
 X =-1.121142423241333E+08 Y =-1.041524074350992E+08 Z =-4.282490537822813E+06
2451401.500000000 = A.D. 1999-Aug-11 00:00:00.0000 TDB 
 X =-1.094541321639112E+08 Y =-1.157642105482941E+08 Z =-4.635647549058825E+06
2451408.500000000 = A.D. 1999-Aug-18 00:00:00.0000 TDB 
 X =-1.052371402529125E+08 Y =-1.277711002291707E+08 Z =-4.966874839026615E+06
2451415.500000000 = A.D. 1999-Aug-25 00:00:00.0000 TDB 
 X =-9.937678883494195E+07 Y =-1.399613220189458E+08 Z =-5.275128007466897E+06
2451422.500000000 = A.D. 1999-Sep-01 00:00:00.0000 TDB 
 X =-9.182436201556796E+07 Y =-1.521235182887978E+08 Z =-5.557697786424734E+06
2451429.500000000 = A.D. 1999-Sep-08 00:00:00.0000 TDB 
 X =-8.254494292831768E+07 Y =-1.640519727743427E+08 Z =-5.811814943262085E+06
2451436.500000000 = A.D. 1999-Sep-15 00:00:00.0000 TDB 
 X =-7.151476831952330E+07 Y =-1.755195289339947E+08 Z =-6.036806620752424E+06
2451443.500000000 = A.D. 1999-Sep-22 00:00:00.0000 TDB 
 X =-5.875413756896039E+07 Y =-1.862822389181203E+08 Z =-6.231855752442680E+06
2451450.500000000 = A.D. 1999-Sep-29 00:00:00.0000 TDB 
 X =-4.432391302930765E+07 Y =-1.961101980524571E+08 Z =-6.394622314274505E+06
2451457.500000000 = A.D. 1999-Oct-06 00:00:00.0000 TDB 
 X =-2.829988633364652E+07 Y =-2.047905413678119E+08 Z =-6.523078753306910E+06
2451464.500000000 = A.D. 1999-Oct-13 00:00:00.0000 TDB 
 X =-1.077387989300084E+07 Y =-2.120997258801101E+08 Z =-6.617321807572842E+06
2451471.500000000 = A.D. 1999-Oct-20 00:00:00.0000 TDB 
 X = 8.115913766229575E+06 Y =-2.178146630626920E+08 Z =-6.677035495210692E+06
2451478.500000000 = A.D. 1999-Oct-27 00:00:00.0000 TDB 
 X = 2.819420369677205E+07 Y =-2.217419644322618E+08 Z =-6.700578241439044E+06
2451485.500000000 = A.D. 1999-Nov-03 00:00:00.0000 TDB 
 X = 4.927577488197478E+07 Y =-2.237180548036081E+08 Z =-6.686998890520468E+06
2451492.500000000 = A.D. 1999-Nov-10 00:00:00.0000 TDB 
 X = 7.116137258761548E+07 Y =-2.235810481301713E+08 Z =-6.637410453551605E+06
2451499.500000000 = A.D. 1999-Nov-17 00:00:00.0000 TDB 
 X = 9.361091647143377E+07 Y =-2.211870800808919E+08 Z =-6.552213415821224E+06
2451506.500000000 = A.D. 1999-Nov-24 00:00:00.0000 TDB 
 X = 1.163587336649070E+08 Y =-2.164364363468491E+08 Z =-6.430674607999414E+06
2451513.500000000 = A.D. 1999-Dec-01 00:00:00.0000 TDB 
 X = 1.391417432253726E+08 Y =-2.092694453680066E+08 Z =-6.273087493467480E+06
2451520.500000000 = A.D. 1999-Dec-08 00:00:00.0000 TDB 
 X = 1.616926875106683E+08 Y =-1.996378520886823E+08 Z =-6.081652596457526E+06
2451527.500000000 = A.D. 1999-Dec-15 00:00:00.0000 TDB 
 X = 1.837171349999542E+08 Y =-1.875243744406432E+08 Z =-5.857527284631446E+06
2451534.500000000 = A.D. 1999-Dec-22 00:00:00.0000 TDB 
 X = 2.049138417267331E+08 Y =-1.729642200858547E+08 Z =-5.600881687763676E+06
2451541.500000000 = A.D. 1999-Dec-29 00:00:00.0000 TDB 
 X = 2.250025812700854E+08 Y =-1.560352002911051E+08 Z =-5.313167614644960E+06
2451548.500000000 = A.D. 2000-Jan-05 00:00:00.0000 TDB 
 X = 2.437140784828179E+08 Y =-1.368286327629022E+08 Z =-4.997492543190368E+06
2451555.500000000 = A.D. 2000-Jan-12 00:00:00.0000 TDB 
 X = 2.607701298977431E+08 Y =-1.154702830002921E+08 Z =-4.655595641134776E+06
2451562.500000000 = A.D. 2000-Jan-19 00:00:00.0000 TDB 
 X = 2.759070994825902E+08 Y =-9.213657525270014E+07 Z =-4.288332625382967E+06
2451569.500000000 = A.D. 2000-Jan-26 00:00:00.0000 TDB 
 X = 2.889013151575658E+08 Y =-6.703819383742629E+07 Z =-3.898011487767257E+06
2451576.500000000 = A.D. 2000-Feb-02 00:00:00.0000 TDB 
 X = 2.995541874054545E+08 Y =-4.039142376063325E+07 Z =-3.488256608508812E+06
2451583.500000000 = A.D. 2000-Feb-09 00:00:00.0000 TDB 
 X = 3.076744982581851E+08 Y =-1.243975073553078E+07 Z =-3.061063841322946E+06
2451590.500000000 = A.D. 2000-Feb-16 00:00:00.0000 TDB 
 X = 3.131026779128000E+08 Y = 1.653461710714132E+07 Z =-2.617646352459564E+06
2451597.500000000 = A.D. 2000-Feb-23 00:00:00.0000 TDB 
 X = 3.157318907289450E+08 Y = 4.623286347111475E+07 Z =-2.160784888459425E+06
2451604.500000000 = A.D. 2000-Mar-01 00:00:00.0000 TDB 
 X = 3.154870416325481E+08 Y = 7.636580868038385E+07 Z =-1.694163106067475E+06
2451611.500000000 = A.D. 2000-Mar-08 00:00:00.0000 TDB 
 X = 3.123090330668098E+08 Y = 1.066311554663336E+08 Z =-1.219680909234531E+06
2451618.500000000 = A.D. 2000-Mar-15 00:00:00.0000 TDB 
 X = 3.061782917880397E+08 Y = 1.367052210516727E+08 Z =-7.386015059960708E+05
2451625.500000000 = A.D. 2000-Mar-22 00:00:00.0000 TDB 
 X = 2.971307933790013E+08 Y = 1.662688720485873E+08 Z =-2.538461149291918E+05
2451632.500000000 = A.D. 2000-Mar-29 00:00:00.0000 TDB 
 X = 2.852309152425573E+08 Y = 1.950291041247295E+08 Z = 2.312204448085278E+05
2451639.500000000 = A.D. 2000-Apr-05 00:00:00.0000 TDB 
 X = 2.705585507426390E+08 Y = 2.226943362499038E+08 Z = 7.150709601472318E+05
2451646.500000000 = A.D. 2000-Apr-12 00:00:00.0000 TDB 
 X = 2.532315951833647E+08 Y = 2.489682586663902E+08 Z = 1.196599277912632E+06
2451653.500000000 = A.D. 2000-Apr-19 00:00:00.0000 TDB 
 X = 2.334172642786241E+08 Y = 2.735776876025796E+08 Z = 1.672962003257051E+06
2451660.500000000 = A.D. 2000-Apr-26 00:00:00.0000 TDB 
 X = 2.113000151941131E+08 Y = 2.962879595831630E+08 Z = 2.141340632055134E+06
2451667.500000000 = A.D. 2000-May-03 00:00:00.0000 TDB 
 X = 1.870728382811814E+08 Y = 3.168760831365806E+08 Z = 2.600734069911882E+06
2451674.500000000 = A.D. 2000-May-10 00:00:00.0000 TDB 
 X = 1.609590989630761E+08 Y = 3.351264789424720E+08 Z = 3.050290023945227E+06
